LT01
1 19001U 19001A   17174.17905833 0.00000000  00000-0  00000-0 0  9998
2 19001  97.4622 233.9963 0009066 254.9264 321.9997 15.20954619    03